WORLDVIEW-1 (WV-1)      
1 32060U 07041A   26187.85364007  .00004641  00000+0  19173-3 0  9998
2 32060  97.3892 307.3195 0000954 263.9722  96.1407 15.24494992 45878
WORLDVIEW-2 (WV-2)      
1 35946U 09055A   26187.85661737  .00000105  00000+0  49238-4 0  9998
2 35946  98.4759 261.0380 0004928 150.4468 209.6998 14.37905345878470
WORLDVIEW-3 (WV-3)      
1 40115U 14048A   26187.84221623  .00000766  00000+0  95998-4 0  9992
2 40115  97.8560 262.4034 0000631 167.1098 193.0133 14.85054952644828
