{"fetched_at":"2026-07-07T07:59:00.729Z","source":"https://celestrak.org/NORAD/elements/gp.php?NAME=WORLDVIEW&FORMAT=JSON","constellation":"worldview","records":[{"OBJECT_NAME":"WORLDVIEW-1 (WV-1)","OBJECT_ID":"2007-041A","EPOCH":"2026-07-06T20:29:14.502048","CLASSIFICATION_TYPE":"U","MEAN_MOTION":15.24494992,"ECCENTRICITY":0.0000954,"INCLINATION":97.3892,"RA_OF_ASC_NODE":307.3195,"ARG_OF_PERICENTER":263.9722,"MEAN_ANOMALY":96.1407,"EPHEMERIS_TYPE":0,"NORAD_CAT_ID":32060,"ELEMENT_SET_NO":999,"REV_AT_EPOCH":4587,"BSTAR":0.00019173,"MEAN_MOTION_DOT":0.00004641,"MEAN_MOTION_DDOT":0},{"OBJECT_NAME":"WORLDVIEW-2 (WV-2)","OBJECT_ID":"2009-055A","EPOCH":"2026-07-06T20:33:31.740768","CLASSIFICATION_TYPE":"U","MEAN_MOTION":14.37905345,"ECCENTRICITY":0.0004928,"INCLINATION":98.4759,"RA_OF_ASC_NODE":261.038,"ARG_OF_PERICENTER":150.4468,"MEAN_ANOMALY":209.6998,"EPHEMERIS_TYPE":0,"NORAD_CAT_ID":35946,"ELEMENT_SET_NO":999,"REV_AT_EPOCH":87847,"BSTAR":0.000049238,"MEAN_MOTION_DOT":0.00000105,"MEAN_MOTION_DDOT":0},{"OBJECT_NAME":"WORLDVIEW-3 (WV-3)","OBJECT_ID":"2014-048A","EPOCH":"2026-07-06T20:12:47.482272","CLASSIFICATION_TYPE":"U","MEAN_MOTION":14.85054952,"ECCENTRICITY":0.0000631,"INCLINATION":97.856,"RA_OF_ASC_NODE":262.4034,"ARG_OF_PERICENTER":167.1098,"MEAN_ANOMALY":193.0133,"EPHEMERIS_TYPE":0,"NORAD_CAT_ID":40115,"ELEMENT_SET_NO":999,"REV_AT_EPOCH":64482,"BSTAR":0.000095998,"MEAN_MOTION_DOT":0.00000766,"MEAN_MOTION_DDOT":0}]}
